JILIN-1 GAOFEN 3A       
1 44312U 19032C   26068.74542089  .00016264  00000+0  55381-3 0  9993
2 44312  44.9746 183.2861 0002618 111.2900 248.8263 15.30271310372592
STARLINK-31792          
1 60132U 24118V   26068.26077840 -.00001876  00000+0 -51265-4 0  9990
2 60132  53.1621  26.3239 0001186 132.0273 228.0828 15.30184207 95668
